{"fetched_at":"2026-03-30T09:12:31Z","count":15922,"tles":[{"name":"STARLINK-31099","line1":"1 58781U 24011S   26087.92894662 -.00000022  00000+0  11369-4 0  9994","line2":"2 58781  53.1598 284.4615 0001163  92.1173 267.9961 15.30190015123210","category":"Starlink"}]}